Siren;Responsable;Adresse;Code_Postal;Ville;NAF;TypeCIL;Portee;Locations;Adress generated;Latitude;Longitude;name;description
314635483;CAISSE GENERALE DE SECURITE SOCIALE DE LA REUNION;4 BD DORET ;97704;ST DENIS CEDEX 9;753A Sécurité sociale obligatoire;;Générale;4 BD DORET  97704 ST DENIS CEDEX 9;4 BD DORET  97704 ST DENIS CEDEX 9;-20.890343;55.461499;CAISSE GENERALE DE SECURITE SOCIALE DE LA REUNION;SIREN : 314635483 | NAF : 753A Sécurité sociale obligatoire |Portée : Générale
;PREFECTURE DU CALVADOS DIRECTION DES COLLECTIVITES LOCALES ET DE L'ENVIRONNEMENT; ;14038;CAEN CEDEX;;;Générale;  14038 CAEN CEDEX;14038 CAEN CEDEX;29.525368;-98.674595;PREFECTURE DU CALVADOS DIRECTION DES COLLECTIVITES LOCALES ET DE L'ENVIRONNEMENT;SIREN :  | NAF :  |Portée : Générale
776145674;SCP LAMARQUE ET MORA;21 AV DU PLA DE LAS FOURQUES ;66190;COLLIOURE;6910Z Activités juridiques;;Etendue;21 AV DU PLA DE LAS FOURQUES  66190 COLLIOURE;21 AV DU PLA DE LAS FOURQUES  66190 COLLIOURE;42.528361;3.080108;SCP LAMARQUE ET MORA;SIREN : 776145674 | NAF : 6910Z Activités juridiques |Portée : Etendue
422525238;SCP MAITRE JEAN-LUC BRIEU;12, BOULEVARD VICTOR HUGO ;66310;ESTAGEL;6910Z Activités juridiques;;Générale;12, BOULEVARD VICTOR HUGO  66310 ESTAGEL;12, BOULEVARD VICTOR HUGO  66310 ESTAGEL;42.770903;2.697657;SCP MAITRE JEAN-LUC BRIEU;SIREN : 422525238 | NAF : 6910Z Activités juridiques |Portée : Générale
330881814;STE D'HABITATION A LOYER MODERE LE NOUVEAU LOGIS PROVENCAL;25 BIS AVE JULES CANTINI ;13006;MARSEILLE;702A Location de biens immobiliers;;Etendue;25 BIS AVE JULES CANTINI  13006 MARSEILLE;25 BIS AVE JULES CANTINI  13006 MARSEILLE;43.285112;5.385217;STE D'HABITATION A LOYER MODERE LE NOUVEAU LOGIS PROVENCAL;SIREN : 330881814 | NAF : 702A Location de biens immobiliers |Portée : Etendue
441529658;BOIS D'OCCITANIE;MAISON DE LA FORET 10 ALLEE DES AUGUES;81200;AUSSILLON;515E Commerce de gros de produits intermédiaires non agricoles;;Générale;MAISON DE LA FORET 10 ALLEE DES AUGUES 81200 AUSSILLON;MAISON DE LA FORET 10 ALLEE DES AUGUES 81200 AUSSILLON;43.496434;2.363757;BOIS D'OCCITANIE;SIREN : 441529658 | NAF : 515E Commerce de gros de produits intermédiaires non agricoles |Portée : Générale
315920728;COOPERATIVE DES FORESTIERS SYLVICULTEURS TORNAIS;10 ALLEE DES AUQUES ;91200;AUSSILLON;515E Commerce de gros de produits intermédiaires non agricoles;;Générale;10 ALLEE DES AUQUES  91200 AUSSILLON;10 ALLEE DES AUQUES  91200 AUSSILLON;43.501609;2.37273;COOPERATIVE DES FORESTIERS SYLVICULTEURS TORNAIS;SIREN : 315920728 | NAF : 515E Commerce de gros de produits intermédiaires non agricoles |Portée : Générale
424435550;MAISON DE LA FORET;10 ALLEE DES AUQUES ;81200;AUSSILLON;;;Générale;10 ALLEE DES AUQUES  81200 AUSSILLON;10 ALLEE DES AUQUES  81200 AUSSILLON;43.501609;2.37273;MAISON DE LA FORET;SIREN : 424435550 | NAF :  |Portée : Générale
392834172;NEWTECH INTERACTIVE;3 CHEMIN DU PIGEONNIER DE LA CEPIERE BP53575;31035;TOULOUSE CEDEX 1;5829C édition de logiciels;;Générale;3 CHEMIN DU PIGEONNIER DE LA CEPIERE BP53575 31035 TOULOUSE CEDEX 1;3 CHEMIN DU PIGEONNIER DE LA CEPIERE BP53575 31035 TOULOUSE CEDEX 1;43.586359;1.400177;NEWTECH INTERACTIVE;SIREN : 392834172 | NAF : 5829C édition de logiciels |Portée : Générale
480049063;ALLIANCE FORESTIERE;125 CHEMIN DE TOURNEFEUILLE ;31300;TOULOUSE;515E Commerce de gros de produits intermédiaires non agricoles;;Générale;125 CHEMIN DE TOURNEFEUILLE  31300 TOULOUSE;125 CHEMIN DE TOURNEFEUILLE  31300 TOULOUSE;43.596531;1.366884;ALLIANCE FORESTIERE;SIREN : 480049063 | NAF : 515E Commerce de gros de produits intermédiaires non agricoles |Portée : Générale
347968240;UNION DES BOIS DU SUD;125 CHEMIN DE TOURNEFEUILLE ;31300;TOULOUSE;515E Commerce de gros de produits intermédiaires non agricoles;;Générale;125 CHEMIN DE TOURNEFEUILLE  31300 TOULOUSE;125 CHEMIN DE TOURNEFEUILLE  31300 TOULOUSE;43.596531;1.366884;UNION DES BOIS DU SUD;SIREN : 347968240 | NAF : 515E Commerce de gros de produits intermédiaires non agricoles |Portée : Générale
750771248;ANCESTRAL;7 RUE MAGE ;31000;TOULOUSE;9609Z Autres services personnels;;Générale;7 RUE MAGE  31000 TOULOUSE;7 RUE MAGE  31000 TOULOUSE;43.597793;1.447058;ANCESTRAL;SIREN : 750771248 | NAF : 9609Z Autres services personnels |Portée : Générale
304603798;COOPERATIVE FORESTIERE DE LA HAUTE GARONNE;15 CHEMIN DE TOURNEFEUILLE ;31300;TOULOUSE;515E Commerce de gros de produits intermédiaires non agricoles;;Générale;15 CHEMIN DE TOURNEFEUILLE  31300 TOULOUSE;15 CHEMIN DE TOURNEFEUILLE  31300 TOULOUSE;43.599621;1.372709;COOPERATIVE FORESTIERE DE LA HAUTE GARONNE;SIREN : 304603798 | NAF : 515E Commerce de gros de produits intermédiaires non agricoles |Portée : Générale
776950446;CAISSE D'ALLOCATIONS FAMILIALES DE LA HAUTE GARONNE;24 RUE RIQUET ;31046;TOULOUSE CEDEX 9;753C Sécurité sociale obligatoire;;Générale;24 RUE RIQUET  31046 TOULOUSE CEDEX 9;24 RUE RIQUET  31046 TOULOUSE CEDEX 9;43.601657;1.454219;CAISSE D'ALLOCATIONS FAMILIALES DE LA HAUTE GARONNE;SIREN : 776950446 | NAF : 753C Sécurité sociale obligatoire |Portée : Générale
330814559;NOUVEAU LOGIS MERIDIONAL;2 RUE DU LIBRE ECHANGE ;31500;TOULOUSE;702A Location de biens immobiliers;;Etendue;2 RUE DU LIBRE ECHANGE  31500 TOULOUSE;2 RUE DU LIBRE ECHANGE  31500 TOULOUSE;43.612681;1.458331;NOUVEAU LOGIS MERIDIONAL;SIREN : 330814559 | NAF : 702A Location de biens immobiliers |Portée : Etendue
424596492;UNION DE GESTION DES ETABLISSEMENTS DES CAISSES D'ASSURANCE MALADIE LANGUEDOC ROUSSILON MIDI PYRENEES;69 AVENUE LOUIS BLERIOT ;34172;CASTELNAU LE NEZ;753A Sécurité sociale obligatoire;;Etendue;69 AVENUE LOUIS BLERIOT  34172 CASTELNAU LE NEZ;69 AVENUE LOUIS BLERIOT  34172 CASTELNAU LE NEZ;43.627371;3.910663;UNION DE GESTION DES ETABLISSEMENTS DES CAISSES D'ASSURANCE MALADIE LANGUEDOC ROUSSILON MIDI PYRENEES;SIREN : 424596492 | NAF : 753A Sécurité sociale obligatoire |Portée : Etendue
782152870;CAISSE PRIMAIRE D'ASSURANCE MALADIE DE LOT ET GARONNE;2 RUE DIDEROT ;47914;AGEN;8430A Sécurité sociale obligatoire;;Etendue;2 RUE DIDEROT  47914 AGEN;2 RUE DIDEROT  47914 AGEN;44.200457;0.61761;CAISSE PRIMAIRE D'ASSURANCE MALADIE DE LOT ET GARONNE;SIREN : 782152870 | NAF : 8430A Sécurité sociale obligatoire |Portée : Etendue
334569324;COOPERATIVE LA FORET PRIVEE LOZERIENNE ET GARDOISE;16 QUAI DE BERLIERE ;48000;MENDE;0220Z Exploitation forestière;;Générale;16 QUAI DE BERLIERE  48000 MENDE;16 QUAI DE BERLIERE  48000 MENDE;44.519913;3.505062;COOPERATIVE LA FORET PRIVEE LOZERIENNE ET GARDOISE;SIREN : 334569324 | NAF : 0220Z Exploitation forestière |Portée : Générale
323960187;SCP LAVAYSSIERE, FALCH ET THOUMAZET;6 AVENUE DU MARECHAL JOFFRE ;46101;FIGEAC;741A Activités juridiques, comptables et de conseil de gestion;;Générale;6 AVENUE DU MARECHAL JOFFRE  46101 FIGEAC;6 AVENUE DU MARECHAL JOFFRE  46101 FIGEAC;44.607788;2.029409;SCP LAVAYSSIERE, FALCH ET THOUMAZET;SIREN : 323960187 | NAF : 741A Activités juridiques, comptables et de conseil de gestion |Portée : Générale
413721846;SOCIÉTÉ DE DISTRIBUTION DES VIGNOBLES CAILLAVET;CHATEAU CAILLAVET - CAPIAN ;33550;LANGOIRAN;;;Etendue;CHATEAU CAILLAVET - CAPIAN  33550 LANGOIRAN;CHATEAU CAILLAVET - CAPIAN  33550 LANGOIRAN;44.707992;-0.400762;SOCIÉTÉ DE DISTRIBUTION DES VIGNOBLES CAILLAVET;SIREN : 413721846 | NAF :  |Portée : Etendue
322188640;ASSOCIATION DES AMIS DE VAULSERRE ET DU TRIEVES;LE VILLAGE ;38930;SAINT MAURICE EN TRIEVES;Code APE: 853 C;;Générale;LE VILLAGE  38930 SAINT MAURICE EN TRIEVES;LE VILLAGE  38930 SAINT MAURICE EN TRIEVES;44.763502;5.660876;ASSOCIATION DES AMIS DE VAULSERRE ET DU TRIEVES;SIREN : 322188640 | NAF : Code APE: 853 C |Portée : Générale
;MAIRIE DE SAINT NIZIER DU MOUCHEROTTE;62 ALLEE DU VALLON ;38250;SAINT NIZIER DU MOUCHEROTTE;;;Générale;62 ALLEE DU VALLON  38250 SAINT NIZIER DU MOUCHEROTTE;62 ALLEE DU VALLON  38250 SAINT NIZIER DU MOUCHEROTTE;45.169222;5.629502;MAIRIE DE SAINT NIZIER DU MOUCHEROTTE;SIREN :  | NAF :  |Portée : Générale
437924707;GIE DES ADASEA DE FRANCE;410 AVENUE MARCELIN BERTHELOT ;38000;GRENOBLE;913E Autres organisations associatives;;Etendue;410 AVENUE MARCELIN BERTHELOT  38000 GRENOBLE;410 AVENUE MARCELIN BERTHELOT  38000 GRENOBLE;45.174763;5.731881;GIE DES ADASEA DE FRANCE;SIREN : 437924707 | NAF : 913E Autres organisations associatives |Portée : Etendue
449427590;SESAME AUTISME DAUPHINE SAVOIE;2457 RTE DE MEYLAN ;38330;BIVIERS;851A Activités pour la santé humaine;;Générale;2457 RTE DE MEYLAN  38330 BIVIERS;2457 RTE DE MEYLAN  38330 BIVIERS;45.242619;5.812093;SESAME AUTISME DAUPHINE SAVOIE;SIREN : 449427590 | NAF : 851A Activités pour la santé humaine |Portée : Générale
450211990;ETUDE CESSAC-MEYRIGNAC;14 AVENUE LEON VACHER ;19260;TREIGNAC;741A Activités juridiques, comptables et de conseil de gestion;;Générale;14 AVENUE LEON VACHER  19260 TREIGNAC;14 AVENUE LEON VACHER  19260 TREIGNAC;45.535266;1.791064;ETUDE CESSAC-MEYRIGNAC;SIREN : 450211990 | NAF : 741A Activités juridiques, comptables et de conseil de gestion |Portée : Générale
266900133;CENTRE HOSPITALIER DE GIVORS;9 AVENUE DU PROFESSEUR FLEMING ;69700;GIVORS;8610Z Activités hospitalières;;Etendue;9 AVENUE DU PROFESSEUR FLEMING  69700 GIVORS;9 AVENUE DU PROFESSEUR FLEMING  69700 GIVORS;45.59932;4.766396;CENTRE HOSPITALIER DE GIVORS;SIREN : 266900133 | NAF : 8610Z Activités hospitalières |Portée : Etendue
960505527;SCIC HABITAT RHONE ALPES - AGENCE LYON;84 BDVIVIER MERLE ;69003;LYON;702A Location de biens immobiliers;;Etendue;84 BDVIVIER MERLE  69003 LYON;84 BDVIVIER MERLE  69003 LYON;45.755125;4.858782;SCIC HABITAT RHONE ALPES - AGENCE LYON;SIREN : 960505527 | NAF : 702A Location de biens immobiliers |Portée : Etendue
936050012;SCIC HABITAT AUVERGNE ET BOURDONNAIS;3 RUE PIERRE BESSET ;63000;CLERMONT FERRAND;702A Location de biens immobiliers;;Etendue;3 RUE PIERRE BESSET  63000 CLERMONT FERRAND;3 RUE PIERRE BESSET  63000 CLERMONT FERRAND;45.781394;3.076372;SCIC HABITAT AUVERGNE ET BOURDONNAIS;SIREN : 936050012 | NAF : 702A Location de biens immobiliers |Portée : Etendue
871200556;CLINIQUE DE LA PLAINE;123 BOULEVARD ETIENNE CLEMENTEL ;63100;CLERMONT FERRAND;8610Z Activités hospitalières;;Etendue;123 BOULEVARD ETIENNE CLEMENTEL  63100 CLERMONT FERRAND;123 BOULEVARD ETIENNE CLEMENTEL  63100 CLERMONT FERRAND;45.802268;3.110681;CLINIQUE DE LA PLAINE;SIREN : 871200556 | NAF : 8610Z Activités hospitalières |Portée : Etendue
950060657;UNISYLVA;44 AVENUE DE LA LIBERATION ;87000;LIMOGES;515E Commerce de gros de produits intermédiaires non agricoles;;Générale;44 AVENUE DE LA LIBERATION  87000 LIMOGES;44 AVENUE DE LA LIBERATION  87000 LIMOGES;45.833966;1.258442;UNISYLVA;SIREN : 950060657 | NAF : 515E Commerce de gros de produits intermédiaires non agricoles |Portée : Générale
781327119;SCP GIBEAU & GIBOIN;23 AVENUE GAMBETTA BP 30121;17306;ROCHEFORT;741A Activités juridiques, comptables et de conseil de gestion;;Générale;23 AVENUE GAMBETTA BP 30121 17306 ROCHEFORT;23 AVENUE GAMBETTA BP 30121 17306 ROCHEFORT;45.936698;-0.961697;SCP GIBEAU & GIBOIN;SIREN : 781327119 | NAF : 741A Activités juridiques, comptables et de conseil de gestion |Portée : Générale
319618138;COFORET;ROUTE DE LYON ;69870;LAMURE SUR AZERGUES;4673A Autres commerces de gros spécialisés;;Générale;ROUTE DE LYON  69870 LAMURE SUR AZERGUES;ROUTE DE LYON  69870 LAMURE SUR AZERGUES;46.063396;4.491787;COFORET;SIREN : 319618138 | NAF : 4673A Autres commerces de gros spécialisés |Portée : Générale
389316290;GIE EURODEM;CHABAN DE CHAURAY ;79084;NIORT CEDEX 9;748K Services divers fournis principalement aux entreprises;;Etendue;CHABAN DE CHAURAY  79084 NIORT CEDEX 9;CHABAN DE CHAURAY  79084 NIORT CEDEX 9;46.327373;-0.418931;GIE EURODEM;SIREN : 389316290 | NAF : 748K Services divers fournis principalement aux entreprises |Portée : Etendue
542073580;MAAF ASSURANCES SA;CHABAN DE CHAURAY ;79036;NIORT CEDEX 9;660A Assurance;;Etendue;CHABAN DE CHAURAY  79036 NIORT CEDEX 9;CHABAN DE CHAURAY  79036 NIORT CEDEX 9;46.327373;-0.418931;MAAF ASSURANCES SA;SIREN : 542073580 | NAF : 660A Assurance |Portée : Etendue
781423280;MUTUELLE ASSURANCE ARTISANALE DE FRANCE;CHABAN DE CHAURAY ;79036;NIORT CEDEX 09;660E Assurance;;Etendue;CHABAN DE CHAURAY  79036 NIORT CEDEX 09;CHABAN DE CHAURAY  79036 NIORT CEDEX 09;46.327373;-0.418931;MUTUELLE ASSURANCE ARTISANALE DE FRANCE;SIREN : 781423280 | NAF : 660E Assurance |Portée : Etendue
392735171;GIE EURO GESTION SANTE;CHABAN DE CHAURAY ;79030;NIORT CEDEX;8299Z Activités de soutien aux entreprises n.c.a.;;Etendue;CHABAN DE CHAURAY  79030 NIORT CEDEX;CHABAN DE CHAURAY  79030 NIORT CEDEX;46.328474;-0.417614;GIE EURO GESTION SANTE;SIREN : 392735171 | NAF : 8299Z Activités de soutien aux entreprises n.c.a. |Portée : Etendue
389272295;GIE EUROPAC;CHABAN DE CHAURAY ;79080;NIORT CEDEX;8299Z Activités de soutien aux entreprises n.c.a.;;Etendue;CHABAN DE CHAURAY  79080 NIORT CEDEX;CHABAN DE CHAURAY  79080 NIORT CEDEX;46.328474;-0.417614;GIE EUROPAC;SIREN : 389272295 | NAF : 8299Z Activités de soutien aux entreprises n.c.a. |Portée : Etendue
389272030;GIE EUROPEX;CHABAN DE CHAURAY ;79083;NIORT CEDEX;8299Z Activités de soutien aux entreprises n.c.a.;;Etendue;CHABAN DE CHAURAY  79083 NIORT CEDEX;CHABAN DE CHAURAY  79083 NIORT CEDEX;46.328474;-0.417614;GIE EUROPEX;SIREN : 389272030 | NAF : 8299Z Activités de soutien aux entreprises n.c.a. |Portée : Etendue
337804819;MAAF VIE;CHAURAY ;79087;NIORT CEDEX 9;6511Z Assurance;;Etendue;CHAURAY  79087 NIORT CEDEX 9;CHAURAY  79087 NIORT CEDEX 9;46.335136;-0.428864;MAAF VIE;SIREN : 337804819 | NAF : 6511Z Assurance |Portée : Etendue
;ASSOCIATION POUR LE DEVELOPPEMENT DES COMPETENCES;CHAURAY ;79036;NIORT;;;Etendue;CHAURAY  79036 NIORT;CHAURAY  79036 NIORT;46.336066;-0.427223;ASSOCIATION POUR LE DEVELOPPEMENT DES COMPETENCES;SIREN :  | NAF :  |Portée : Etendue
389272139;GIE LOGISTIC;CHAURAY ;79082;NIORT CEDEX;748K Services divers fournis principalement aux entreprises;;Etendue;CHAURAY  79082 NIORT CEDEX;CHAURAY  79082 NIORT CEDEX;46.336066;-0.427223;GIE LOGISTIC;SIREN : 389272139 | NAF : 748K Services divers fournis principalement aux entreprises |Portée : Etendue
389272386;GROUPEMENT D'INTERET ECONOMIQUE RCDI;CHAURAY ;79085;NIORT;748K Services divers fournis principalement aux entreprises;;Etendue;CHAURAY  79085 NIORT;CHAURAY  79085 NIORT;46.336066;-0.427223;GROUPEMENT D'INTERET ECONOMIQUE RCDI;SIREN : 389272386 | NAF : 748K Services divers fournis principalement aux entreprises |Portée : Etendue
405164690;MAAF PREVENTION ET SECURITE;CHAURAY ;79086;NIORT;913E Autres organisations associatives;;Etendue;CHAURAY  79086 NIORT;CHAURAY  79086 NIORT;46.336066;-0.427223;MAAF PREVENTION ET SECURITE;SIREN : 405164690 | NAF : 913E Autres organisations associatives |Portée : Etendue
331542142;MAAF SANTE;CHAURAY ;79030;NIORT;660G Assurance;;Etendue;CHAURAY  79030 NIORT;CHAURAY  79030 NIORT;46.336066;-0.427223;MAAF SANTE;SIREN : 331542142 | NAF : 660G Assurance |Portée : Etendue
424097103;GROUPEMENT D'INTERET ECONOMIQUE ATLAS SERVICE ET DEVELOPPEMENT;RUE COPERNIC ;79180;CHAURAY;748K Services divers fournis principalement aux entreprises;;Etendue;RUE COPERNIC  79180 CHAURAY;RUE COPERNIC  79180 CHAURAY;46.339298;-0.397181;GROUPEMENT D'INTERET ECONOMIQUE ATLAS SERVICE ET DEVELOPPEMENT;SIREN : 424097103 | NAF : 748K Services divers fournis principalement aux entreprises |Portée : Etendue
316695469;LA LICORNE COMPAGNIE DE REASSURANCES;CHAURAY ;79180;CHAURAY;660F Assurance;;Etendue;CHAURAY  79180 CHAURAY;CHAURAY  79180 CHAURAY;46.341172;-0.38064;LA LICORNE COMPAGNIE DE REASSURANCES;SIREN : 316695469 | NAF : 660F Assurance |Portée : Etendue
403203805;GIE EUROTRESORERIE;CHABAN ;79180;CHAURAY;748K Services divers fournis principalement aux entreprises;;Etendue;CHABAN  79180 CHAURAY;CHABAN  79180 CHAURAY;46.344462;-0.403824;GIE EUROTRESORERIE;SIREN : 403203805 | NAF : 748K Services divers fournis principalement aux entreprises |Portée : Etendue
407499011;MAAF TELESURVEILLANCE;CHABAN ;79180;CHAURAY;746Z Enquêtes et sécurité;;Etendue;CHABAN  79180 CHAURAY;CHABAN  79180 CHAURAY;46.344462;-0.403824;MAAF TELESURVEILLANCE;SIREN : 407499011 | NAF : 746Z Enquêtes et sécurité |Portée : Etendue
435053350;NOVEA ASSURANCES;CHABAN ;79180;CHAURAY;660E Assurance;;Etendue;CHABAN  79180 CHAURAY;CHABAN  79180 CHAURAY;46.344462;-0.403824;NOVEA ASSURANCES;SIREN : 435053350 | NAF : 660E Assurance |Portée : Etendue
775188899;CAISSE PRIMAIRE D'ASSURANCE MALADIE DE L'INDRE;8 RUE JACQUES SADRON ;36000;CHATEAUROUX;753A Sécurité sociale obligatoire;;Générale;8 RUE JACQUES SADRON  36000 CHATEAUROUX;8 RUE JACQUES SADRON  36000 CHATEAUROUX;46.808219;1.688339;CAISSE PRIMAIRE D'ASSURANCE MALADIE DE L'INDRE;SIREN : 775188899 | NAF : 753A Sécurité sociale obligatoire |Portée : Générale
413419383;SDEL BERRY;ZONE INDUSTRIELLE LES NOYERS ;36150;VATAN;;;Etendue;ZONE INDUSTRIELLE LES NOYERS  36150 VATAN;ZONE INDUSTRIELLE LES NOYERS  36150 VATAN;47.080531;1.820556;SDEL BERRY;SIREN : 413419383 | NAF :  |Portée : Etendue
322576620;SCP GUILARD CONVERS ET PERE NOTAIRES ASSOCIES;7 BOULEVARD DE BROSSES BP 22753;21027;DIJON;741A Activités juridiques, comptables et de conseil de gestion;;Etendue;7 BOULEVARD DE BROSSES BP 22753 21027 DIJON;7 BOULEVARD DE BROSSES BP 22753 21027 DIJON;47.322047;5.04148;SCP GUILARD CONVERS ET PERE NOTAIRES ASSOCIES;SIREN : 322576620 | NAF : 741A Activités juridiques, comptables et de conseil de gestion |Portée : Etendue
333485191;HLM NOUVEAU LOGIS CENTRE LIMOUSIN;12 RUE DR HERPIN ;37000;TOURS CEDEX 1;702A Location de biens immobiliers;;Etendue;12 RUE DR HERPIN  37000 TOURS CEDEX 1;12 RUE DR HERPIN  37000 TOURS CEDEX 1;47.38885;0.698994;HLM NOUVEAU LOGIS CENTRE LIMOUSIN;SIREN : 333485191 | NAF : 702A Location de biens immobiliers |Portée : Etendue
405265521;NEW ASSOCIATES;470 RUE HENRI POTEZ BP 60112;37210;PARCAY-MESLAY;8030Z Activités d'enquête;;Générale;470 RUE HENRI POTEZ BP 60112 37210 PARCAY-MESLAY;470 RUE HENRI POTEZ BP 60112 37210 PARCAY-MESLAY;47.44142;0.745623;NEW ASSOCIATES;SIREN : 405265521 | NAF : 8030Z Activités d'enquête |Portée : Générale
72200843;PEPINIERES LEVAVASSEUR;RD 347 BP 47 LES LANDES;49800;BRAIN SUR L'AUTHION;011D Culture;;Générale;RD 347 BP 47 LES LANDES 49800 BRAIN SUR L'AUTHION;RD 347 BP 47 LES LANDES 49800 BRAIN SUR L'AUTHION;47.467327;-0.441016;PEPINIERES LEVAVASSEUR;SIREN : 72200843 | NAF : 011D Culture |Portée : Générale
391827441;ALAIN HEME DE LACOTTE - NOTAIRE;3 RUE CHARLES DODUN ;41190;HERBAULT;741A Activités juridiques, comptables et de conseil de gestion;;Générale;3 RUE CHARLES DODUN  41190 HERBAULT;3 RUE CHARLES DODUN  41190 HERBAULT;47.605437;1.137704;ALAIN HEME DE LACOTTE - NOTAIRE;SIREN : 391827441 | NAF : 741A Activités juridiques, comptables et de conseil de gestion |Portée : Générale
316979236;ALAIN PLEAU NOTAIRE;52 RUE DE PICARDIE ;45160;OLIVET;741A Activités juridiques, comptables et de conseil de gestion;;Etendue;52 RUE DE PICARDIE  45160 OLIVET;52 RUE DE PICARDIE  45160 OLIVET;47.843091;1.922099;ALAIN PLEAU NOTAIRE;SIREN : 316979236 | NAF : 741A Activités juridiques, comptables et de conseil de gestion |Portée : Etendue
716120027;SOCER;PLACE SHEURER KESTNER ;68000;COLMAR;921J Activités cinématographiques et vidéo;;Générale;PLACE SHEURER KESTNER  68000 COLMAR;PLACE SHEURER KESTNER  68000 COLMAR;48.082377;7.357121;SOCER;SIREN : 716120027 | NAF : 921J Activités cinématographiques et vidéo |Portée : Générale
778986679;association caroline binder;10 CHEMIN DES CONFINS ;68124;LOGELBACH;8790A Autres activités d'hébergement social;;Générale;10 CHEMIN DES CONFINS  68124 LOGELBACH;10 CHEMIN DES CONFINS  68124 LOGELBACH;48.082948;7.323465;association caroline binder;SIREN : 778986679 | NAF : 8790A Autres activités d'hébergement social |Portée : Générale
332005099;MAITRE JEAN BURDLOFF - NOTAIRE;3 RUE DU STADE ;68040;INGERSHEIM;741A Activités juridiques, comptables et de conseil de gestion;;Etendue;3 RUE DU STADE  68040 INGERSHEIM;3 RUE DU STADE  68040 INGERSHEIM;48.095158;7.304421;MAITRE JEAN BURDLOFF - NOTAIRE;SIREN : 332005099 | NAF : 741A Activités juridiques, comptables et de conseil de gestion |Portée : Etendue
193509361;UNIVERSITE DE RENNES 1;2 RUE DU THABOR CS 46510;35065;RENNES;8542Z Enseignement supérieur et post-secondaire non supérieur;;Générale;2 RUE DU THABOR CS 46510 35065 RENNES;2 RUE DU THABOR CS 46510 35065 RENNES;48.117266;-1.677793;UNIVERSITE DE RENNES 1;SIREN : 193509361 | NAF : 8542Z Enseignement supérieur et post-secondaire non supérieur |Portée : Générale
528904691;SDEL VOSGES;12 CHEMIN DE LA MARE AUX FEES ;88000;CHANTRAINE;4321B Travaux d'installation électrique, plomberie et autres travaux d'installation;;Générale;12 CHEMIN DE LA MARE AUX FEES  88000 CHANTRAINE;12 CHEMIN DE LA MARE AUX FEES  88000 CHANTRAINE;48.174235;6.425824;SDEL VOSGES;SIREN : 528904691 | NAF : 4321B Travaux d'installation électrique, plomberie et autres travaux d'installation |Portée : Générale
305850750;VOSGESMATIN.FR;40 QUAI DES BONS ENFANTS ;88000;EPINAL;221C Edition;;Générale;40 QUAI DES BONS ENFANTS  88000 EPINAL;40 QUAI DES BONS ENFANTS  88000 EPINAL;48.174411;6.445306;VOSGESMATIN.FR;SIREN : 305850750 | NAF : 221C Edition |Portée : Générale
383419611;FORETS ET BOIS DE L'EST;17 RUE ANDRE VITU ;88026;EPINAL CEDEX;0220Z Exploitation forestière;;Générale;17 RUE ANDRE VITU  88026 EPINAL CEDEX;17 RUE ANDRE VITU  88026 EPINAL CEDEX;48.177504;6.468589;FORETS ET BOIS DE L'EST;SIREN : 383419611 | NAF : 0220Z Exploitation forestière |Portée : Générale
191010602;UNIVERSITE DE TECHNOLOGIE DE TROYES;12 RUE MARIE CURIE BP 2060 ;10000;TROYES;803Z Enseignement supérieur;;Générale;12 RUE MARIE CURIE BP 2060  10000 TROYES;12 RUE MARIE CURIE BP 2060  10000 TROYES;48.297345;4.074401;UNIVERSITE DE TECHNOLOGIE DE TROYES;SIREN : 191010602 | NAF : 803Z Enseignement supérieur |Portée : Générale
333613693;NOUVEAU LOGIS DE L'EST;2 RUE ADOLPHE SEYBOTH ;67000;STRASBOURG;702A Location de biens immobiliers;;Etendue;2 RUE ADOLPHE SEYBOTH  67000 STRASBOURG;2 RUE ADOLPHE SEYBOTH  67000 STRASBOURG;48.581604;7.739311;NOUVEAU LOGIS DE L'EST;SIREN : 333613693 | NAF : 702A Location de biens immobiliers |Portée : Etendue
392685228;OGEC NOTRE DAME ST SIGISBERT;19 COURS LEOPOLD ;54042;NANCY CEDEX;802A Enseignement secondaire;;Générale;19 COURS LEOPOLD  54042 NANCY CEDEX;19 COURS LEOPOLD  54042 NANCY CEDEX;48.695188;6.175239;OGEC NOTRE DAME ST SIGISBERT;SIREN : 392685228 | NAF : 802A Enseignement secondaire |Portée : Générale
408214575;COVIDIEN FRANCE SAS;2 RUE DENIS DIDEROT LA CLEF DE SAINT PIERRE;78990;ELANCOURT;514N Commerce de gros de biens de consommation non alimentaires;;Générale;2 RUE DENIS DIDEROT LA CLEF DE SAINT PIERRE 78990 ELANCOURT;2 RUE DENIS DIDEROT LA CLEF DE SAINT PIERRE 78990 ELANCOURT;48.782907;1.960077;COVIDIEN FRANCE SAS;SIREN : 408214575 | NAF : 514N Commerce de gros de biens de consommation non alimentaires |Portée : Générale
400608717;BOSCH SECURITY SYSTEMS FRANCE SAS;ATLANTIC 361 361, AVENUE DU GENERAL DE GAULLE;92147;CLAMART;316D Fabrication d'autres matériels électriques;;Générale;ATLANTIC 361 361, AVENUE DU GENERAL DE GAULLE 92147 CLAMART;ATLANTIC 361 361, AVENUE DU GENERAL DE GAULLE 92147 CLAMART;48.78509;2.250381;BOSCH SECURITY SYSTEMS FRANCE SAS;SIREN : 400608717 | NAF : 316D Fabrication d'autres matériels électriques |Portée : Générale
642007991;SOCIETE COOPERATIVE GALEC;26 QUAI MARCEL BOYER BP 30004;94200;IVRY SUR SEINE;741G Activités juridiques, comptables et de conseil de gestion;;Etendue;26 QUAI MARCEL BOYER BP 30004 94200 IVRY SUR SEINE;26 QUAI MARCEL BOYER BP 30004 94200 IVRY SUR SEINE;48.813055;2.38822;SOCIETE COOPERATIVE GALEC;SIREN : 642007991 | NAF : 741G Activités juridiques, comptables et de conseil de gestion |Portée : Etendue
402622773;CRIA PREVOYANCE;139 / 147 RUE PAUL VAILLANT COUTURIER ;92246;MALAKOFF CEDEX;8430B Sécurité sociale obligatoire;;Etendue;139 / 147 RUE PAUL VAILLANT COUTURIER  92246 MALAKOFF CEDEX;139 / 147 RUE PAUL VAILLANT COUTURIER  92246 MALAKOFF CEDEX;48.817639;2.291066;CRIA PREVOYANCE;SIREN : 402622773 | NAF : 8430B Sécurité sociale obligatoire |Portée : Etendue
403193105;GIE 48;139/147 RUE PAUL VAILLANT COUTURIER ;92240;MALAKOFF;748K Services divers fournis principalement aux entreprises;;Etendue;139/147 RUE PAUL VAILLANT COUTURIER  92240 MALAKOFF;139/147 RUE PAUL VAILLANT COUTURIER  92240 MALAKOFF;48.817639;2.291066;GIE 48;SIREN : 403193105 | NAF : 748K Services divers fournis principalement aux entreprises |Portée : Etendue
321617805;INTERVIE;139 / 147 RUE PAUL VAILLANT COUTURIER ;92247;MALAKOFF CEDEX;6511Z Assurance;;Etendue;139 / 147 RUE PAUL VAILLANT COUTURIER  92247 MALAKOFF CEDEX;139 / 147 RUE PAUL VAILLANT COUTURIER  92247 MALAKOFF CEDEX;48.817639;2.291066;INTERVIE;SIREN : 321617805 | NAF : 6511Z Assurance |Portée : Etendue
342066396;IONIS PARTENAIRE;139/147 RUE PAUL VAILLANT COUTURIER ;92240;MALAKOFF;672Z Auxiliaires d'assurance;;Etendue;139/147 RUE PAUL VAILLANT COUTURIER  92240 MALAKOFF;139/147 RUE PAUL VAILLANT COUTURIER  92240 MALAKOFF;48.817639;2.291066;IONIS PARTENAIRE;SIREN : 342066396 | NAF : 672Z Auxiliaires d'assurance |Portée : Etendue
351272729;IONIS PREVOYANCE;139/147 RUE PAUL VAILLANT COUTURIER ;92240;MALAKOFF;753B Sécurité sociale obligatoire;;Etendue;139/147 RUE PAUL VAILLANT COUTURIER  92240 MALAKOFF;139/147 RUE PAUL VAILLANT COUTURIER  92240 MALAKOFF;48.817639;2.291066;IONIS PREVOYANCE;SIREN : 351272729 | NAF : 753B Sécurité sociale obligatoire |Portée : Etendue
334240363;IONIS SERVICES;139/147 RUE PAUL VAILLANT COUTURIER ;92240;MALAKOFF;748K Services divers fournis principalement aux entreprises;;Etendue;139/147 RUE PAUL VAILLANT COUTURIER  92240 MALAKOFF;139/147 RUE PAUL VAILLANT COUTURIER  92240 MALAKOFF;48.817639;2.291066;IONIS SERVICES;SIREN : 334240363 | NAF : 748K Services divers fournis principalement aux entreprises |Portée : Etendue
338431687;IPRICAS;139/147 RUE PAUL VAILLANT COUTURIER ;92240;MALAKOFF;753B Sécurité sociale obligatoire;;Etendue;139/147 RUE PAUL VAILLANT COUTURIER  92240 MALAKOFF;139/147 RUE PAUL VAILLANT COUTURIER  92240 MALAKOFF;48.817639;2.291066;IPRICAS;SIREN : 338431687 | NAF : 753B Sécurité sociale obligatoire |Portée : Etendue
403411010;IREX;139/147 RUE PAUL VAILLANT COUTURIER ;92240;MALAKOFF;753B Sécurité sociale obligatoire;;Etendue;139/147 RUE PAUL VAILLANT COUTURIER  92240 MALAKOFF;139/147 RUE PAUL VAILLANT COUTURIER  92240 MALAKOFF;48.817639;2.291066;IREX;SIREN : 403411010 | NAF : 753B Sécurité sociale obligatoire |Portée : Etendue
334240363;UES IONIS;139-147 RUE PAUL VAILLANT COUTURIER ;92246;MALAKOFF CEDEX;748K Services divers fournis principalement aux entreprises;;Etendue;139-147 RUE PAUL VAILLANT COUTURIER  92246 MALAKOFF CEDEX;139-147 RUE PAUL VAILLANT COUTURIER  92246 MALAKOFF CEDEX;48.817639;2.291066;UES IONIS;SIREN : 334240363 | NAF : 748K Services divers fournis principalement aux entreprises |Portée : Etendue
784413486;ASSOCIATION DES CENTRES DISTRIBUTEURS E.LECLERC;26 QUAI MARCEL BOYER ;94859;IVRY SUR SEINE;913E Autres organisations associatives;;Etendue;26 QUAI MARCEL BOYER  94859 IVRY SUR SEINE;26 QUAI MARCEL BOYER  94859 IVRY SUR SEINE;48.822733;2.391833;ASSOCIATION DES CENTRES DISTRIBUTEURS E.LECLERC;SIREN : 784413486 | NAF : 913E Autres organisations associatives |Portée : Etendue
123456789;TRUC;14 RUE DES PEUPLIERS ;75013;PARIS;4212Z Construction de routes et de voies ferrées;;Générale;14 RUE DES PEUPLIERS  75013 PARIS;14 RUE DES PEUPLIERS  75013 PARIS;48.8244;2.353427;TRUC;SIREN : 123456789 | NAF : 4212Z Construction de routes et de voies ferrées |Portée : Générale
503314353;GIE AG2R;GROUPE AG2R 35 BOULEVARD BRUNE;75014;PARIS;;;Générale;GROUPE AG2R 35 BOULEVARD BRUNE 75014 PARIS;GROUPE AG2R 35 BOULEVARD BRUNE 75014 PARIS;48.827182;2.308606;GIE AG2R;SIREN : 503314353 | NAF :  |Portée : Générale
552046484;OSICA;102 AVENUE DE FRANCE ;75646;PARIS CEDEX 13;702A Location de biens immobiliers;;Etendue;102 AVENUE DE FRANCE  75646 PARIS CEDEX 13;102 AVENUE DE FRANCE  75646 PARIS CEDEX 13;48.829992;2.377412;OSICA;SIREN : 552046484 | NAF : 702A Location de biens immobiliers |Portée : Etendue
470801168;SOCIETE NATIONALE IMMOBILIERE;4-14 RUE FERRUS ;75683;PARIS CEDEX 14;702A Location de biens immobiliers;;Etendue;4-14 RUE FERRUS  75683 PARIS CEDEX 14;4-14 RUE FERRUS  75683 PARIS CEDEX 14;48.831081;2.339775;SOCIETE NATIONALE IMMOBILIERE;SIREN : 470801168 | NAF : 702A Location de biens immobiliers |Portée : Etendue
197537426;ECOLE DES HAUTES ETUDES EN SCIENCES SOCIALES;190 AVENUE DE FRANCE ;75244;PARIS CEDEX 13;8542Z Enseignement supérieur et post-secondaire non supérieur;;Générale;190 AVENUE DE FRANCE  75244 PARIS CEDEX 13;190 AVENUE DE FRANCE  75244 PARIS CEDEX 13;48.836052;2.371655;ECOLE DES HAUTES ETUDES EN SCIENCES SOCIALES;SIREN : 197537426 | NAF : 8542Z Enseignement supérieur et post-secondaire non supérieur |Portée : Générale
424533958;MAUBIM;CENTRE COMMERCIAL BAY  1 LOISIRS PROMENADE DU SEPTIEME ART ;77200;TORCY;921J Activités cinématographiques et vidéo;;Générale;CENTRE COMMERCIAL BAY  1 LOISIRS PROMENADE DU SEPTIEME ART  77200 TORCY;CENTRE COMMERCIAL BAY  1 LOISIRS PROMENADE DU SEPTIEME ART  77200 TORCY;48.840603;2.654048;MAUBIM;SIREN : 424533958 | NAF : 921J Activités cinématographiques et vidéo |Portée : Générale
383024098;CNP CAUTION;4 PLACE RAOUL DAUTY ;75716;PARIS CEDEX 15;671C Auxiliaires financiers;;Etendue;4 PLACE RAOUL DAUTY  75716 PARIS CEDEX 15;4 PLACE RAOUL DAUTY  75716 PARIS CEDEX 15;48.841776;2.319953;CNP CAUTION;SIREN : 383024098 | NAF : 671C Auxiliaires financiers |Portée : Etendue
383024189;CNP IAM;4 PLACE RAOUL DAUTRY ;75716;PARIS CEDEX 15;660E Assurance;;Etendue;4 PLACE RAOUL DAUTRY  75716 PARIS CEDEX 15;4 PLACE RAOUL DAUTRY  75716 PARIS CEDEX 15;48.841776;2.319953;CNP IAM;SIREN : 383024189 | NAF : 660E Assurance |Portée : Etendue
347932436;INVESTISSEMENT TRESOR VIE;4 PLACE RAOUL DAUTRY ;75716;PARIS;660A Assurance;;Etendue;4 PLACE RAOUL DAUTRY  75716 PARIS;4 PLACE RAOUL DAUTRY  75716 PARIS;48.841776;2.319953;INVESTISSEMENT TRESOR VIE;SIREN : 347932436 | NAF : 660A Assurance |Portée : Etendue
419901269;ASSURPOSTE;83 BOULEVARD DU MONTPARNASSE ;75006;PARIS;660E Assurance;;Etendue;83 BOULEVARD DU MONTPARNASSE  75006 PARIS;83 BOULEVARD DU MONTPARNASSE  75006 PARIS;48.843682;2.325776;ASSURPOSTE;SIREN : 419901269 | NAF : 660E Assurance |Portée : Etendue
269200978;CENTRE DE GERONTOLOGIE LES ABONDANCES;56 RUE DES ABONDANCES ;92100;BOULOGNE BILLANCOURT;853K Action sociale;;Générale;56 RUE DES ABONDANCES  92100 BOULOGNE BILLANCOURT;56 RUE DES ABONDANCES  92100 BOULOGNE BILLANCOURT;48.84668;2.230376;CENTRE DE GERONTOLOGIE LES ABONDANCES;SIREN : 269200978 | NAF : 853K Action sociale |Portée : Générale
267500262;CAISSE DES ECOLES DU 6EME ARRONDISSEMENT DE PARIS;78 RUE BONAPARTE ;75270;PARIS;8899B Autre action sociale sans hébergement;;Etendue;78 RUE BONAPARTE  75270 PARIS;78 RUE BONAPARTE  75270 PARIS;48.850594;2.332271;CAISSE DES ECOLES DU 6EME ARRONDISSEMENT DE PARIS;SIREN : 267500262 | NAF : 8899B Autre action sociale sans hébergement |Portée : Etendue
378003826;ALEXANDER HUGHES INTERNATIONAL;57 BOULEVARD DE MONTMORENCY ;75016;PARIS;741J Activités juridiques, comptables et de conseil de gestion;;Etendue;57 BOULEVARD DE MONTMORENCY  75016 PARIS;57 BOULEVARD DE MONTMORENCY  75016 PARIS;48.851282;2.2626;ALEXANDER HUGHES INTERNATIONAL;SIREN : 378003826 | NAF : 741J Activités juridiques, comptables et de conseil de gestion |Portée : Etendue
383023272;ECTEI;37 Quai de Grenelle ;75015;PARIS;8542Z Enseignement supérieur et post-secondaire non supérieur;;Etendue;37 Quai de Grenelle  75015 PARIS;37 Quai de Grenelle  75015 PARIS;48.851767;2.287162;ECTEI;SIREN : 383023272 | NAF : 8542Z Enseignement supérieur et post-secondaire non supérieur |Portée : Etendue
775671381;FEDERATION FRANCAISE DE TENNIS;2 AVENUE GORDON BENNETT STADE ROLAND GARROS;75016;PARIS;;;Etendue;2 AVENUE GORDON BENNETT STADE ROLAND GARROS 75016 PARIS;2 AVENUE GORDON BENNETT STADE ROLAND GARROS 75016 PARIS;48.853093;2.248763;FEDERATION FRANCAISE DE TENNIS;SIREN : 775671381 | NAF :  |Portée : Etendue
353690514;VEGA INVESTMENT MANAGERS;RUE MONTTESSUY ;75007;PARIS;;;Générale;RUE MONTTESSUY  75007 PARIS;RUE MONTTESSUY  75007 PARIS;48.859502;2.298992;VEGA INVESTMENT MANAGERS;SIREN : 353690514 | NAF :  |Portée : Générale
438712333;CELOGOS;15 RUE BERANGER ;75003;PARIS;731Z Recherche-développement en sciences physiques et naturelles;;Générale;15 RUE BERANGER  75003 PARIS;15 RUE BERANGER  75003 PARIS;48.865943;2.363301;CELOGOS;SIREN : 438712333 | NAF : 731Z Recherche-développement en sciences physiques et naturelles |Portée : Générale
420792582;HRA PHARMA;15 RUE BERANGER ;75003;PARIS;4646Z Commerce de gros de biens domestiques;;Générale;15 RUE BERANGER  75003 PARIS;15 RUE BERANGER  75003 PARIS;48.865943;2.363301;HRA PHARMA;SIREN : 420792582 | NAF : 4646Z Commerce de gros de biens domestiques |Portée : Générale
327215695;AGENCE POUR PREVENTION DESORDRES AMELIORATION QUALITE CONSTR;9 BLD MALESHERBES ;75008;PARIS;7022Z Conseil de gestion;;Générale;9 BLD MALESHERBES  75008 PARIS;9 BLD MALESHERBES  75008 PARIS;48.870728;2.322255;AGENCE POUR PREVENTION DESORDRES AMELIORATION QUALITE CONSTR;SIREN : 327215695 | NAF : 7022Z Conseil de gestion |Portée : Générale
785092099;JACHEET RIGAUD NOTAIRES;18 AVE DE SAINT GERMAIN ;78160;MARLY LE ROI;741A Activités juridiques, comptables et de conseil de gestion;;Etendue;18 AVE DE SAINT GERMAIN  78160 MARLY LE ROI;18 AVE DE SAINT GERMAIN  78160 MARLY LE ROI;48.873813;2.094652;JACHEET RIGAUD NOTAIRES;SIREN : 785092099 | NAF : 741A Activités juridiques, comptables et de conseil de gestion |Portée : Etendue
339330722;STE DES AUTEURS DANS LES ARTS GRAPHIQUES ET PLASTIQUES;11 RUE BERRYER ;75008;PARIS;9002Z Activités créatives, artistiques et de spectacle;;Générale;11 RUE BERRYER  75008 PARIS;11 RUE BERRYER  75008 PARIS;48.875389;2.303604;STE DES AUTEURS DANS LES ARTS GRAPHIQUES ET PLASTIQUES;SIREN : 339330722 | NAF : 9002Z Activités créatives, artistiques et de spectacle |Portée : Générale
775691215;CAISSE AUTONOME DE RETRAITE DES MEDECINS DE FRANCE;46 RUE SAINT FERDINAND ;75841;PARIS CEDEX 17;;;Générale;46 RUE SAINT FERDINAND  75841 PARIS CEDEX 17;46 RUE SAINT FERDINAND  75841 PARIS CEDEX 17;48.87753;2.286249;CAISSE AUTONOME DE RETRAITE DES MEDECINS DE FRANCE;SIREN : 775691215 | NAF :  |Portée : Générale
382386241;AFERCO SARL - SEVIGNE INTERNATIONAL;15 AVENUE DE VILLIERS ;75017;PARIS;722C Réalisation de logiciels;;Etendue;15 AVENUE DE VILLIERS  75017 PARIS;15 AVENUE DE VILLIERS  75017 PARIS;48.88162;2.313638;AFERCO SARL - SEVIGNE INTERNATIONAL;SIREN : 382386241 | NAF : 722C Réalisation de logiciels |Portée : Etendue
440080083;FLORENSON SAS - SEVIGNE INTERNATIONAL;15 AVENUE DE VILLIERS ;75017;PARIS;671C Auxiliaires financiers;;Etendue;15 AVENUE DE VILLIERS  75017 PARIS;15 AVENUE DE VILLIERS  75017 PARIS;48.88162;2.313638;FLORENSON SAS - SEVIGNE INTERNATIONAL;SIREN : 440080083 | NAF : 671C Auxiliaires financiers |Portée : Etendue
347939415;PR INTERNATIONAL;91 RUE JEAN JAURES ;92800;PUTEAUX;748J Services divers fournis principalement aux entreprises;;Etendue;91 RUE JEAN JAURES  92800 PUTEAUX;91 RUE JEAN JAURES  92800 PUTEAUX;48.882453;2.241157;PR INTERNATIONAL;SIREN : 347939415 | NAF : 748J Services divers fournis principalement aux entreprises |Portée : Etendue
;GROUPEMENT DES INDUSTRIES DE LA CHIMIE POUR LES ETUDES ET LA RECHERCHE;LE DIAMANT 14 RUE DE LA REPUBLIQUE;92800;PUTEAUX;;;Etendue;LE DIAMANT 14 RUE DE LA REPUBLIQUE 92800 PUTEAUX;LE DIAMANT 14 RUE DE LA REPUBLIQUE 92800 PUTEAUX;48.886511;2.244032;GROUPEMENT DES INDUSTRIES DE LA CHIMIE POUR LES ETUDES ET LA RECHERCHE;SIREN :  | NAF :  |Portée : Etendue
391257946;AREMIS CONSULTANTS;10 RUE BEFFROY ;92200;NEUILLY SUR SEINE;741G Activités juridiques, comptables et de conseil de gestion;;Etendue;10 RUE BEFFROY  92200 NEUILLY SUR SEINE;10 RUE BEFFROY  92200 NEUILLY SUR SEINE;48.887086;2.26122;AREMIS CONSULTANTS;SIREN : 391257946 | NAF : 741G Activités juridiques, comptables et de conseil de gestion |Portée : Etendue
552037806;VINCI;1 COURS FERDINAND DE LESSEPS ;92851;RUEIL MALMAISON;451A Préparation des sites;;Générale;1 COURS FERDINAND DE LESSEPS  92851 RUEIL MALMAISON;1 COURS FERDINAND DE LESSEPS  92851 RUEIL MALMAISON;48.890155;2.167053;VINCI;SIREN : 552037806 | NAF : 451A Préparation des sites |Portée : Générale
403031347;UTS;307 RUE D'ESTIENNE D'ORVES ;92708;COLOMBES CEDEX;721Z Conseil en systèmes informatiques;;Etendue;307 RUE D'ESTIENNE D'ORVES  92708 COLOMBES CEDEX;307 RUE D'ESTIENNE D'ORVES  92708 COLOMBES CEDEX;48.909594;2.234245;UTS;SIREN : 403031347 | NAF : 721Z Conseil en systèmes informatiques |Portée : Etendue
429787856;GROUP PETER HOLMES;65 RUE PAUL ELUARD ;93200;SAINT DENIS;741G Activités juridiques, comptables et de conseil de gestion;;Etendue;65 RUE PAUL ELUARD  93200 SAINT DENIS;65 RUE PAUL ELUARD  93200 SAINT DENIS;48.940847;2.34335;GROUP PETER HOLMES;SIREN : 429787856 | NAF : 741G Activités juridiques, comptables et de conseil de gestion |Portée : Etendue
123456789;BENARDO;11 RUE DE JUILLY ;93200;ST DENIS;Code APE: ;;Générale;11 RUE DE JUILLY  93200 ST DENIS;11 RUE DE JUILLY  93200 ST DENIS;48.983987;2.621547;BENARDO;SIREN : 123456789 | NAF : Code APE:  |Portée : Générale
394332092;AFFINION INTERNATIONAL ASSURANCES;33 RUE DES VANESSES ZAC PARIS NORD II;95916;ROISSY CHARLES DE GAULLE;;;Générale;33 RUE DES VANESSES ZAC PARIS NORD II 95916 ROISSY CHARLES DE GAULLE;33 RUE DES VANESSES ZAC PARIS NORD II 95916 ROISSY CHARLES DE GAULLE;49.009691;2.547925;AFFINION INTERNATIONAL ASSURANCES;SIREN : 394332092 | NAF :  |Portée : Générale
403036957;PREVOT PHILIPPE;3 RUE ARTHUR LEDUC ;50160;TORIGNI SUR VIRE;741A Activités juridiques, comptables et de conseil de gestion;;Etendue;3 RUE ARTHUR LEDUC  50160 TORIGNI SUR VIRE;3 RUE ARTHUR LEDUC  50160 TORIGNI SUR VIRE;49.034127;-0.978918;PREVOT PHILIPPE;SIREN : 403036957 | NAF : 741A Activités juridiques, comptables et de conseil de gestion |Portée : Etendue
211401815;MAIRIE DE CORMELLES LE ROYAL;20 RUE DE L'EGLISE ;14123;CORMELLES LE ROYAL;751A Administration générale, économique et sociale;;Générale;20 RUE DE L'EGLISE  14123 CORMELLES LE ROYAL;20 RUE DE L'EGLISE  14123 CORMELLES LE ROYAL;49.155115;-0.332325;MAIRIE DE CORMELLES LE ROYAL;SIREN : 211401815 | NAF : 751A Administration générale, économique et sociale |Portée : Générale
171404304;RECTORAT DE L'ACADEMIE DE CAEN;168, RUE CAPONIERE ;14061;CAEN;8560Z Activités de soutien à l'enseignement;;Etendue;168, RUE CAPONIERE  14061 CAEN;168, RUE CAPONIERE  14061 CAEN;49.179477;-0.382992;RECTORAT DE L'ACADEMIE DE CAEN;SIREN : 171404304 | NAF : 8560Z Activités de soutien à l'enseignement |Portée : Etendue
432337897;BOSCH CENTRE DE SERVICE;6, RUE DE LA MONTAGNE ;57600;FORBACH;748F Services divers fournis principalement aux entreprises;;Générale;6, RUE DE LA MONTAGNE  57600 FORBACH;6, RUE DE LA MONTAGNE  57600 FORBACH;49.184821;6.898874;BOSCH CENTRE DE SERVICE;SIREN : 432337897 | NAF : 748F Services divers fournis principalement aux entreprises |Portée : Générale
301792743;PAYELLE SAS SEVIGNE INTERNATIONAL;1 BIS RUE MAURICE HOLLANDE B.P. 1007;51683;REIMS CEDEX;8291Z Activités de soutien aux entreprises n.c.a.;;Etendue;1 BIS RUE MAURICE HOLLANDE B.P. 1007 51683 REIMS CEDEX;1 BIS RUE MAURICE HOLLANDE B.P. 1007 51683 REIMS CEDEX;49.228283;4.086605;PAYELLE SAS SEVIGNE INTERNATIONAL;SIREN : 301792743 | NAF : 8291Z Activités de soutien aux entreprises n.c.a. |Portée : Etendue
663813582;NIVAULT ALAIN;LE VIEUX MANOIR 13 RUE BELLEVUE ;14970;BENOUVILLE;Code APE: 5573;;Générale;LE VIEUX MANOIR 13 RUE BELLEVUE  14970 BENOUVILLE;LE VIEUX MANOIR 13 RUE BELLEVUE  14970 BENOUVILLE;49.247055;-0.279265;NIVAULT ALAIN;SIREN : 663813582 | NAF : Code APE: 5573 |Portée : Générale
;NEXX ASSOCIATION;ZAC LES BOSQUETS ;76230;BOIS GUILLAUME;;;Etendue;ZAC LES BOSQUETS  76230 BOIS GUILLAUME;ZAC LES BOSQUETS  76230 BOIS GUILLAUME;49.468852;1.114831;NEXX ASSOCIATION;SIREN :  | NAF :  |Portée : Etendue
403329519;NEXX ASSURANCE;ZAC LES BOQUETS ;76230;BOIS GUILLAUME;672Z Auxiliaires d'assurance;;Etendue;ZAC LES BOQUETS  76230 BOIS GUILLAUME;ZAC LES BOQUETS  76230 BOIS GUILLAUME;49.468852;1.114831;NEXX ASSURANCE;SIREN : 403329519 | NAF : 672Z Auxiliaires d'assurance |Portée : Etendue
197627623;UNIVERSITE DU HAVRE;25, RUE PHILIPPE LEBON CS 21123;76063;LE HAVRE;8542Z Enseignement supérieur et post-secondaire non supérieur;;Générale;25, RUE PHILIPPE LEBON CS 21123 76063 LE HAVRE;25, RUE PHILIPPE LEBON CS 21123 76063 LE HAVRE;49.49437;0.107929;UNIVERSITE DU HAVRE;SIREN : 197627623 | NAF : 8542Z Enseignement supérieur et post-secondaire non supérieur |Portée : Générale
332088897;ETUDE DE MAITRE HEULIN DAVID HUISSIER DE JUSTICE;10 PLACE PARMENTIER BP 40054;80500;MONTDIDIER;6910Z Activités juridiques;;Etendue;10 PLACE PARMENTIER BP 40054 80500 MONTDIDIER;10 PLACE PARMENTIER BP 40054 80500 MONTDIDIER;49.647007;2.566932;ETUDE DE MAITRE HEULIN DAVID HUISSIER DE JUSTICE;SIREN : 332088897 | NAF : 6910Z Activités juridiques |Portée : Etendue
333612778;SAPI HABITAT;RESIDENCE LE BELVEDERE BP 20029 - 275 RU EJULES BARNI;80000;AMIENS;702A Location de biens immobiliers;;Etendue;RESIDENCE LE BELVEDERE BP 20029 - 275 RU EJULES BARNI 80000 AMIENS;RESIDENCE LE BELVEDERE BP 20029 - 275 RU EJULES BARNI 80000 AMIENS;49.89905;2.275277;SAPI HABITAT;SIREN : 333612778 | NAF : 702A Location de biens immobiliers |Portée : Etendue
423628262;UGECAM NORD PAS-DE-CALAIS PICARDIE;22 BIS RUE DE TURENNE ;59043;LILLE CEDEX;8430A Sécurité sociale obligatoire;;Générale;22 BIS RUE DE TURENNE  59043 LILLE CEDEX;22 BIS RUE DE TURENNE  59043 LILLE CEDEX;50.629114;3.036533;UGECAM NORD PAS-DE-CALAIS PICARDIE;SIREN : 423628262 | NAF : 8430A Sécurité sociale obligatoire |Portée : Générale
494183205;SELARL MURIEL CLABAULT NOTAIRE;47 RUE DE LLILLE ;59280;ARMENTIERES;;;Etendue;47 RUE DE LLILLE  59280 ARMENTIERES;47 RUE DE LLILLE  59280 ARMENTIERES;50.684012;2.880614;SELARL MURIEL CLABAULT NOTAIRE;SIREN : 494183205 | NAF :  |Portée : Etendue
418361234;FLYNET;45 BOULEVARD DU GENERAL LECLERC ;59100;ROUBAIX;8299Z Activités de soutien aux entreprises n.c.a.;;Etendue;45 BOULEVARD DU GENERAL LECLERC  59100 ROUBAIX;45 BOULEVARD DU GENERAL LECLERC  59100 ROUBAIX;50.690671;3.177736;FLYNET;SIREN : 418361234 | NAF : 8299Z Activités de soutien aux entreprises n.c.a. |Portée : Etendue
494487598;IDEESNET;45 BOULEVARD DU GENERAL LECLERC ;59100;ROUBAIX;721Z Conseil en systèmes informatiques;;Etendue;45 BOULEVARD DU GENERAL LECLERC  59100 ROUBAIX;45 BOULEVARD DU GENERAL LECLERC  59100 ROUBAIX;50.690671;3.177736;IDEESNET;SIREN : 494487598 | NAF : 721Z Conseil en systèmes informatiques |Portée : Etendue
494859119;OPTINSOLUTION;45 BOULEVARD DU GENERAL LECLERC ;59100;ROUBAIX;722C Réalisation de logiciels;;Etendue;45 BOULEVARD DU GENERAL LECLERC  59100 ROUBAIX;45 BOULEVARD DU GENERAL LECLERC  59100 ROUBAIX;50.690671;3.177736;OPTINSOLUTION;SIREN : 494859119 | NAF : 722C Réalisation de logiciels |Portée : Etendue
498041813;PRODCAST;45 BOULEVARD DU GENERAL LECLERC ;59100;ROUBAIX;921G Activités cinématographiques et vidéo;;Etendue;45 BOULEVARD DU GENERAL LECLERC  59100 ROUBAIX;45 BOULEVARD DU GENERAL LECLERC  59100 ROUBAIX;50.690671;3.177736;PRODCAST;SIREN : 498041813 | NAF : 921G Activités cinématographiques et vidéo |Portée : Etendue
450458187;LEXMERCATOR;DOMAINE DE LA SAYE 2 ALLEE DES FILEURS;59122;HONDSCHOOTE;913E Autres organisations associatives;;Générale;DOMAINE DE LA SAYE 2 ALLEE DES FILEURS 59122 HONDSCHOOTE;DOMAINE DE LA SAYE 2 ALLEE DES FILEURS 59122 HONDSCHOOTE;50.975722;2.583803;LEXMERCATOR;SIREN : 450458187 | NAF : 913E Autres organisations associatives |Portée : Générale
380718528;AFFINION INTERNATIONAL VOYAGES;33 RUE DES VANESSES ZAC PARIS NORD II;95916;ROISSY CDG CEDEX;7911Z Activités des agences de voyage et voyagistes;;Générale;33 RUE DES VANESSES ZAC PARIS NORD II 95916 ROISSY CDG CEDEX;33 RUE DES VANESSES  95916 ROISSY;48.972997;2.503484;AFFINION INTERNATIONAL VOYAGES;SIREN : 380718528 | NAF : 7911Z Activités des agences de voyage et voyagistes |Portée : Générale
385290309;AGENCE DE L'ENVIRONNEMENT ET DE LA MAITRISE DE L'ENERGIE;20 AVENUE DU GRESILLE BP 90406;49004;ANGERS CEDEX 01;751E Administration générale, économique et sociale;;Générale;20 AVENUE DU GRESILLE BP 90406 49004 ANGERS CEDEX 01;20 AVENUE DU GRESILLE  49004 ANGERS;47.457784;-0.602876;AGENCE DE L'ENVIRONNEMENT ET DE LA MAITRISE DE L'ENERGIE;SIREN : 385290309 | NAF : 751E Administration générale, économique et sociale |Portée : Générale
266700228;CENTRE HOSPITALIER SAINTE CATHERINE DE SAVERNE;19 COTE DE SAVERNE BP 20105;67703;SAVERNE CEDEX;8610Z Activités hospitalières;;Générale;19 COTE DE SAVERNE BP 20105 67703 SAVERNE CEDEX;19 COTE DE SAVERNE  67703 SAVERNE CEDEX;48.746683;7.353921;CENTRE HOSPITALIER SAINTE CATHERINE DE SAVERNE;SIREN : 266700228 | NAF : 8610Z Activités hospitalières |Portée : Générale
342789815;CIMS;33 RUE DES VANESSES ZI PARIS NORD II BP 50229 ZI PARIS NORD II BP 50229;95956;ROISSY AEROPORT CDG CEDEX;724Z Activités de banques de données;;Générale;33 RUE DES VANESSES ZI PARIS NORD II BP 50229 ZI PARIS NORD II BP 50229 95956 ROISSY AEROPORT CDG CEDEX;33 RUE DES VANESSES 95956 ROISSY;48.972997;2.503484;CIMS;SIREN : 342789815 | NAF : 724Z Activités de banques de données |Portée : Générale
630783108;CLINIQUE DES CHANDIOTS;36 RUE DES CHANDIOTS BP 10 ;63014;CLERMONT FERRAND CEDEX 2;851A Activités pour la santé humaine;;Etendue;36 RUE DES CHANDIOTS BP 10  63014 CLERMONT FERRAND CEDEX 2;36 RUE DES CHANDIOTS  63014 CLERMONT FERRAND CEDEX 2;45.789851;3.115214;CLINIQUE DES CHANDIOTS;SIREN : 630783108 | NAF : 851A Activités pour la santé humaine |Portée : Etendue
778899005;COLMAR HABITAT HLM;33 RUE DE LA HOUBLONNIERE BP 20306;68006;COLMAR CEDEX;702A Location de biens immobiliers;;Etendue;33 RUE DE LA HOUBLONNIERE BP 20306 68006 COLMAR CEDEX;33 RUE DE LA HOUBLONNIERE 68006 COLMAR CEDEX;48.085794;7.361786;COLMAR HABITAT HLM;SIREN : 778899005 | NAF : 702A Location de biens immobiliers |Portée : Etendue
777944596;COOPERATIVE FORESTIERE BOURGOGNE LIMOUSIN;BP 85 ZA DU THEIL;19203;USSEL;020B Sylviculture, exploitation forestière, services annexes;;Générale;BP 85 ZA DU THEIL 19203 USSEL;19203 USSEL;44.88699;3.883741;COOPERATIVE FORESTIERE BOURGOGNE LIMOUSIN;SIREN : 777944596 | NAF : 020B Sylviculture, exploitation forestière, services annexes |Portée : Générale
;COOPERATIVE FORESTIERE DU GRAND OUEST;RUE TOULOUSE LAUTREC BP 844;27008;EVREUX CEDEX;4673A Autres commerces de gros spécialisés;;Générale;RUE TOULOUSE LAUTREC BP 844 27008 EVREUX CEDEX;RUE TOULOUSE LAUTREC  27008 EVREUX CEDEX;49.003898;1.142183;COOPERATIVE FORESTIERE DU GRAND OUEST;SIREN :  | NAF : 4673A Autres commerces de gros spécialisés |Portée : Générale
329463939;EREM;RUE NICEPHORE NIEPCE BP 214;76304;SOTTEVILLE LES ROUEN CEDEX;285D  Traitement des métaux  mécanique générale ;;Générale;RUE NICEPHORE NIEPCE BP 214 76304 SOTTEVILLE LES ROUEN CEDEX;RUE NICEPHORE NIEPCE 76304 SOTTEVILLE LES ROUEN CEDEX;49.400802;1.11279;EREM;SIREN : 329463939 | NAF : 285D  Traitement des métaux ,mécanique générale  |Portée : Générale
490752805;JYSK;17 RUE DU COLISEE BP 232;75364;PARIS CEDEX 08;524H Autres commerces de détail en magasin spécialisé;;Etendue;17 RUE DU COLISEE BP 232 75364 PARIS CEDEX 08;17 RUE DU COLISEE  75364 PARIS CEDEX 08;48.870827;2.308043;JYSK;SIREN : 490752805 | NAF : 524H Autres commerces de détail en magasin spécialisé |Portée : Etendue
775560816;LA PLAINE NORMANDE;16 AVENUE DE VERDUN BP 227;14012;CAEN CEDEX;6820A Location et exploitation de biens immobiliers propres ou loués;;Etendue;16 AVENUE DE VERDUN BP 227 14012 CAEN CEDEX;16 AVENUE DE VERDUN  14012 CAEN CEDEX;49.178721;-0.359395;LA PLAINE NORMANDE;SIREN : 775560816 | NAF : 6820A Location et exploitation de biens immobiliers propres ou loués |Portée : Etendue
214201477;MAIRIE DE MONTBRISON;HOTEL DE VILLE BP 179;42605;MONTBRISON CEDEX;751A Administration générale, économique et sociale;;Générale;HOTEL DE VILLE BP 179 42605 MONTBRISON CEDEX;HOTEL DE VILLE 42605 MONTBRISON CEDEX;45.607566;4.063344;MAIRIE DE MONTBRISON;SIREN : 214201477 | NAF : 751A Administration générale, économique et sociale |Portée : Générale
503181001;MONEXT;TOUR EGEE 10 AVENUE DE L'ARCHE;92671;COURBEVOIE CEDEX;8220Z Activités de centres d'appels;;Etendue;TOUR EGEE 10 AVENUE DE L'ARCHE 92671 COURBEVOIE CEDEX;10 AVENUE DE L'ARCHE 92671 COURBEVOIE CEDEX;48.895428;2.238789;MONEXT;SIREN : 503181001 | NAF : 8220Z Activités de centres d'appels |Portée : Etendue
413469354;MOSOLF LOGISTIQUE ET TECHNIQUE;EUROPOLE DE SONNEGUEMINES RUE HUBERT ROTH;57913;HAMBACH CEDEX;;;Etendue;EUROPOLE DE SONNEGUEMINES RUE HUBERT ROTH 57913 HAMBACH CEDEX;RUE HUBERT ROTH 57913 HAMBACH;49.066607;7.037696;MOSOLF LOGISTIQUE ET TECHNIQUE;SIREN : 413469354 | NAF :  |Portée : Etendue
15851108;SCIC HABITAT BOURGOGNE CHAMPAGNE;11 A 15 RUE COLONEL MARCHAND BP 128;21004;DIJON CEDEX;702A Location de biens immobiliers;;Etendue;11 A 15 RUE COLONEL MARCHAND BP 128 21004 DIJON CEDEX;11 A 15 RUE COLONEL MARCHAND  21004 DIJON CEDEX;47.326718;5.036447;SCIC HABITAT BOURGOGNE CHAMPAGNE;SIREN : 15851108 | NAF : 702A Location de biens immobiliers |Portée : Etendue
431662758;SCP DELECROIX NOTAIRES ASSOCIES;24, AVENUE DE LA DIVISION LECLERC BP 114;92164;ANTONY;741A Activités juridiques, comptables et de conseil de gestion;;Générale;24, AVENUE DE LA DIVISION LECLERC BP 114 92164 ANTONY;24, AVENUE DE LA DIVISION LECLERC 92164 ANTONY;48.752254;2.304104;SCP DELECROIX NOTAIRES ASSOCIES;SIREN : 431662758 | NAF : 741A Activités juridiques, comptables et de conseil de gestion |Portée : Générale
328566351;SELARL JEAN PIERRE CLAVEL;2, RUE DES PRES BP 100;84103;ORANGE CEDEX;741A Activités juridiques, comptables et de conseil de gestion;;Générale;2, RUE DES PRES BP 100 84103 ORANGE CEDEX;2, RUE DES PRES  84103 ORANGE CEDEX;44.140034;4.806241;SELARL JEAN PIERRE CLAVEL;SIREN : 328566351 | NAF : 741A Activités juridiques, comptables et de conseil de gestion |Portée : Générale
872802988;SOCIETE ANONYME D'HLM DES MARCHES DE L'OUEST;1 RUE SASSAFRAS BP 90105;44301;NANTES CEDEX 3;702A Location de biens immobiliers;;Etendue;1 RUE SASSAFRAS BP 90105 44301 NANTES CEDEX 3;1 RUE SASSAFRAS  44301 NANTES CEDEX 3;47.248535;-1.493421;SOCIETE ANONYME D'HLM DES MARCHES DE L'OUEST;SIREN : 872802988 | NAF : 702A Location de biens immobiliers |Portée : Etendue
307263780;SOCIETE SAINTE BARBE;2 HUCHET BP 70031 ;57801;FREYMING MERLEBACH CEDEX;702A Location de biens immobiliers;;Etendue;2 HUCHET BP 70031  57801 FREYMING MERLEBACH CEDEX;2 HUCHET   57801 FREYMING MERLEBACH CEDEX;49.144903;6.805248;SOCIETE SAINTE BARBE;SIREN : 307263780 | NAF : 702A Location de biens immobiliers |Portée : Etendue
781819230;STE HABITATIONS A LOYER MODERE COLIGNY DE BORDEAUX;IMMEUBLE LE MOZART 2 RUE JEAN ARTUS BP 111;33030;BORDEAUX CEDEX;702A Location de biens immobiliers;;Etendue;IMMEUBLE LE MOZART 2 RUE JEAN ARTUS BP 111 33030 BORDEAUX CEDEX;2 RUE JEAN ARTUS  33030 BORDEAUX CEDEX;44.861281;-0.582918;STE HABITATIONS A LOYER MODERE COLIGNY DE BORDEAUX;SIREN : 781819230 | NAF : 702A Location de biens immobiliers |Portée : Etendue
330861097;STE HABITATIONS A LOYER MODERE LE NOUVEAU LOGIS AZUR;268 AV DE LA CALIFORNIE BP 174 ;6203;NICE CEDEX 3;702A Location de biens immobiliers;;Etendue;268 AV DE LA CALIFORNIE BP 174  6203 NICE CEDEX 3;268 AV DE LA CALIFORNIE   6203 NICE;43.678268;7.228685;STE HABITATIONS A LOYER MODERE LE NOUVEAU LOGIS AZUR;SIREN : 330861097 | NAF : 702A Location de biens immobiliers |Portée : Etendue
265407767;SYNDICAT INTER HOSPITALIER NANCEIEN DE LA CHIRURGIE DE L'APPAREIL LOCOMOTEUR;49 RUE HERMITE CS 75211;54052;NANCY;851A Activités pour la santé humaine;;Générale;49 RUE HERMITE CS 75211 54052 NANCY;49 RUE HERMITE  54052 NANCY;48.698549;6.172161;SYNDICAT INTER HOSPITALIER NANCEIEN DE LA CHIRURGIE DE L'APPAREIL LOCOMOTEUR;SIREN : 265407767 | NAF : 851A Activités pour la santé humaine |Portée : Générale
193317666;UNIVERSITE MICHEL DE MONTAIGNE BORDEAUX III;ESPLANADE DES ANTILLES DOMAINE UNIVERSITAIRE;33607;PESSAC CEDEX;803Z Enseignement supérieur;;Générale;ESPLANADE DES ANTILLES DOMAINE UNIVERSITAIRE 33607 PESSAC CEDEX;DOMAINE UNIVERSITAIRE 33607 PESSAC CEDEX;44.79879;-0.615409;UNIVERSITE MICHEL DE MONTAIGNE BORDEAUX III;SIREN : 193317666 | NAF : 803Z Enseignement supérieur |Portée : Générale
